[
    {
        "Altitude(m)": 555737.2390416331,
        "Argument of Periapsis(deg)": 0.033114955553567506,
        "Eccentricity": 0.0,
        "Inclination(deg)": 53.0,
        "Latitude(deg)": -8.489087346275113,
        "Longitude(deg)": 142.4346866949412,
        "Mean Anomaly(deg)": 190.4580643378879,
        "RAAN(deg)": 59.950716842640084,
        "Satellite Name": "Starlink Shell 1 272",
        "Satellite Number": 272,
        "Semi-Major Axis(m)": 6931778.249405717,
        "Time(s)": 950
    },
    {
        "Altitude(m)": 555848.8448550547,
        "Argument of Periapsis(deg)": 0.03346353403307874,
        "Eccentricity": 0.0,
        "Inclination(deg)": 53.0,
        "Latitude(deg)": -8.989359576503276,
        "Longitude(deg)": 142.7787407957997,
        "Mean Anomaly(deg)": 191.08489554144467,
        "RAAN(deg)": 59.9501980725626,
        "Satellite Name": "Starlink Shell 1 272",
        "Satellite Number": 272,
        "Semi-Major Axis(m)": 6931778.249405717,
        "Time(s)": 960
    },
    {
        "Altitude(m)": 555962.8912291639,
        "Argument of Periapsis(deg)": 0.03381211251258998,
        "Eccentricity": 0.0,
        "Inclination(deg)": 53.0,
        "Latitude(deg)": -9.489202136824352,
        "Longitude(deg)": 143.12384278442136,
        "Mean Anomaly(deg)": 191.71172674500136,
        "RAAN(deg)": 59.94967930248512,
        "Satellite Name": "Starlink Shell 1 272",
        "Satellite Number": 272,
        "Semi-Major Axis(m)": 6931778.249405717,
        "Time(s)": 970
    },
    {
        "Altitude(m)": 556079.3461616168,
        "Argument of Periapsis(deg)": 0.034160690992101214,
        "Eccentricity": 0.0,
        "Inclination(deg)": 53.0,
        "Latitude(deg)": -9.988590179985765,
        "Longitude(deg)": 143.47005437099236,
        "Mean Anomaly(deg)": 192.33855794855805,
        "RAAN(deg)": 59.94916053240766,
        "Satellite Name": "Starlink Shell 1 272",
        "Satellite Number": 272,
        "Semi-Major Axis(m)": 6931778.249405717,
        "Time(s)": 980
    },
    {
        "Altitude(m)": 556198.1764367134,
        "Argument of Periapsis(deg)": 0.034509269471612446,
        "Eccentricity": 0.0,
        "Inclination(deg)": 53.0,
        "Latitude(deg)": -10.487498629721228,
        "Longitude(deg)": 143.81743824736017,
        "Mean Anomaly(deg)": 192.96538915211482,
        "RAAN(deg)": 59.94864176233018,
        "Satellite Name": "Starlink Shell 1 272",
        "Satellite Number": 272,
        "Semi-Major Axis(m)": 6931778.249405717,
        "Time(s)": 990
    }
]